CCSDS_OMM_VERS = 2.0
CREATION_DATE  = 
ORIGINATOR     = 

OBJECT_NAME    = STARLINK-36587
OBJECT_ID      = 2026-014A
CENTER_NAME    = EARTH
REF_FRAME      = TEME
TIME_SYSTEM    = UTC
MEAN_ELEMENT_THEORY = SGP/SGP4

EPOCH          = 2026-02-21T05:13:19.517664
MEAN_MOTION    = 15.80854798
ECCENTRICITY   = .00018503
INCLINATION    = 97.2839
RA_OF_ASC_NODE = 296.3907
ARG_OF_PERICENTER = 119.1210
MEAN_ANOMALY   = 241.0244

EPHEMERIS_TYPE = 0
CLASSIFICATION_TYPE = U
NORAD_CAT_ID   = 67532
ELEMENT_SET_NO = 999
REV_AT_EPOCH   = 598
BSTAR          = .19489927E-2
MEAN_MOTION_DOT = .391109E-2
MEAN_MOTION_DDOT = 0

CCSDS_OMM_VERS = 2.0
CREATION_DATE  = 
ORIGINATOR     = 

OBJECT_NAME    = STARLINK-36417
OBJECT_ID      = 2026-014B
CENTER_NAME    = EARTH
REF_FRAME      = TEME
TIME_SYSTEM    = UTC
MEAN_ELEMENT_THEORY = SGP/SGP4

EPOCH          = 2026-02-21T05:01:31.668384
MEAN_MOTION    = 15.75196562
ECCENTRICITY   = .00024369
INCLINATION    = 97.2832
RA_OF_ASC_NODE = 296.2465
ARG_OF_PERICENTER = 74.6398
MEAN_ANOMALY   = 285.5136

EPHEMERIS_TYPE = 0
CLASSIFICATION_TYPE = U
NORAD_CAT_ID   = 67533
ELEMENT_SET_NO = 999
REV_AT_EPOCH   = 597
BSTAR          = .1864167E-2
MEAN_MOTION_DOT = .287582E-2
MEAN_MOTION_DDOT = 0

CCSDS_OMM_VERS = 2.0
CREATION_DATE  = 
ORIGINATOR     = 

OBJECT_NAME    = STARLINK-36576
OBJECT_ID      = 2026-014C
CENTER_NAME    = EARTH
REF_FRAME      = TEME
TIME_SYSTEM    = UTC
MEAN_ELEMENT_THEORY = SGP/SGP4

EPOCH          = 2026-02-21T05:41:10.107456
MEAN_MOTION    = 15.75174875
ECCENTRICITY   = .00015275
INCLINATION    = 97.2835
RA_OF_ASC_NODE = 296.3630
ARG_OF_PERICENTER = 85.9605
MEAN_ANOMALY   = 274.1835

EPHEMERIS_TYPE = 0
CLASSIFICATION_TYPE = U
NORAD_CAT_ID   = 67534
ELEMENT_SET_NO = 999
REV_AT_EPOCH   = 598
BSTAR          = .20172351E-2
MEAN_MOTION_DOT = .311802E-2
MEAN_MOTION_DDOT = 0

CCSDS_OMM_VERS = 2.0
CREATION_DATE  = 
ORIGINATOR     = 

OBJECT_NAME    = STARLINK-36574
OBJECT_ID      = 2026-014D
CENTER_NAME    = EARTH
REF_FRAME      = TEME
TIME_SYSTEM    = UTC
MEAN_ELEMENT_THEORY = SGP/SGP4

EPOCH          = 2026-02-21T06:00:02.000160
MEAN_MOTION    = 15.75250738
ECCENTRICITY   = .00029444
INCLINATION    = 97.2847
RA_OF_ASC_NODE = 296.4046
ARG_OF_PERICENTER = 88.8300
MEAN_ANOMALY   = 51.5132

EPHEMERIS_TYPE = 0
CLASSIFICATION_TYPE = U
NORAD_CAT_ID   = 67535
ELEMENT_SET_NO = 999
REV_AT_EPOCH   = 604
BSTAR          = -.10422649E-2
MEAN_MOTION_DOT = -.153287E-2
MEAN_MOTION_DDOT = 0

CCSDS_OMM_VERS = 2.0
CREATION_DATE  = 
ORIGINATOR     = 

OBJECT_NAME    = STARLINK-36572
OBJECT_ID      = 2026-014E
CENTER_NAME    = EARTH
REF_FRAME      = TEME
TIME_SYSTEM    = UTC
MEAN_ELEMENT_THEORY = SGP/SGP4

EPOCH          = 2026-02-21T04:41:42.929664
MEAN_MOTION    = 15.75480824
ECCENTRICITY   = .00016477
INCLINATION    = 97.2813
RA_OF_ASC_NODE = 296.2655
ARG_OF_PERICENTER = 93.5977
MEAN_ANOMALY   = 266.5477

EPHEMERIS_TYPE = 0
CLASSIFICATION_TYPE = U
NORAD_CAT_ID   = 67536
ELEMENT_SET_NO = 999
REV_AT_EPOCH   = 597
BSTAR          = .23960866E-2
MEAN_MOTION_DOT = .378283E-2
MEAN_MOTION_DDOT = 0

CCSDS_OMM_VERS = 2.0
CREATION_DATE  = 
ORIGINATOR     = 

OBJECT_NAME    = STARLINK-36561
OBJECT_ID      = 2026-014F
CENTER_NAME    = EARTH
REF_FRAME      = TEME
TIME_SYSTEM    = UTC
MEAN_ELEMENT_THEORY = SGP/SGP4

EPOCH          = 2026-02-21T04:50:20.903712
MEAN_MOTION    = 15.75156005
ECCENTRICITY   = .00025603
INCLINATION    = 97.2828
RA_OF_ASC_NODE = 296.2570
ARG_OF_PERICENTER = 88.9352
MEAN_ANOMALY   = 271.2207

EPHEMERIS_TYPE = 0
CLASSIFICATION_TYPE = U
NORAD_CAT_ID   = 67537
ELEMENT_SET_NO = 999
REV_AT_EPOCH   = 597
BSTAR          = .20002421E-2
MEAN_MOTION_DOT = .30882E-2
MEAN_MOTION_DDOT = 0

CCSDS_OMM_VERS = 2.0
CREATION_DATE  = 
ORIGINATOR     = 

OBJECT_NAME    = STARLINK-36397
OBJECT_ID      = 2026-014G
CENTER_NAME    = EARTH
REF_FRAME      = TEME
TIME_SYSTEM    = UTC
MEAN_ELEMENT_THEORY = SGP/SGP4

EPOCH          = 2026-02-21T04:55:55.503264
MEAN_MOTION    = 15.75162011
ECCENTRICITY   = .00021766
INCLINATION    = 97.2844
RA_OF_ASC_NODE = 296.2524
ARG_OF_PERICENTER = 156.2557
MEAN_ANOMALY   = 203.8809

EPHEMERIS_TYPE = 0
CLASSIFICATION_TYPE = U
NORAD_CAT_ID   = 67538
ELEMENT_SET_NO = 999
REV_AT_EPOCH   = 597
BSTAR          = .17189359E-2
MEAN_MOTION_DOT = .264033E-2
MEAN_MOTION_DDOT = 0

CCSDS_OMM_VERS = 2.0
CREATION_DATE  = 
ORIGINATOR     = 

OBJECT_NAME    = STARLINK-36573
OBJECT_ID      = 2026-014H
CENTER_NAME    = EARTH
REF_FRAME      = TEME
TIME_SYSTEM    = UTC
MEAN_ELEMENT_THEORY = SGP/SGP4

EPOCH          = 2026-02-21T05:29:59.307360
MEAN_MOTION    = 15.75201887
ECCENTRICITY   = .0001538
INCLINATION    = 97.2848
RA_OF_ASC_NODE = 296.3715
ARG_OF_PERICENTER = 49.9102
MEAN_ANOMALY   = 310.2298

EPHEMERIS_TYPE = 0
CLASSIFICATION_TYPE = U
NORAD_CAT_ID   = 67539
ELEMENT_SET_NO = 999
REV_AT_EPOCH   = 598
BSTAR          = .16042757E-2
MEAN_MOTION_DOT = .246317E-2
MEAN_MOTION_DDOT = 0

CCSDS_OMM_VERS = 2.0
CREATION_DATE  = 
ORIGINATOR     = 

OBJECT_NAME    = STARLINK-36585
OBJECT_ID      = 2026-014J
CENTER_NAME    = EARTH
REF_FRAME      = TEME
TIME_SYSTEM    = UTC
MEAN_ELEMENT_THEORY = SGP/SGP4

EPOCH          = 2026-02-21T04:44:15.157824
MEAN_MOTION    = 15.75201070
ECCENTRICITY   = .00023991
INCLINATION    = 97.2821
RA_OF_ASC_NODE = 296.2587
ARG_OF_PERICENTER = 72.8460
MEAN_ANOMALY   = 287.3067

EPHEMERIS_TYPE = 0
CLASSIFICATION_TYPE = U
NORAD_CAT_ID   = 67540
ELEMENT_SET_NO = 999
REV_AT_EPOCH   = 597
BSTAR          = .16650989E-2
MEAN_MOTION_DOT = .25595E-2
MEAN_MOTION_DDOT = 0

CCSDS_OMM_VERS = 2.0
CREATION_DATE  = 
ORIGINATOR     = 

OBJECT_NAME    = STARLINK-36579
OBJECT_ID      = 2026-014K
CENTER_NAME    = EARTH
REF_FRAME      = TEME
TIME_SYSTEM    = UTC
MEAN_ELEMENT_THEORY = SGP/SGP4

EPOCH          = 2026-02-21T04:33:04.232448
MEAN_MOTION    = 15.75153855
ECCENTRICITY   = .000261
INCLINATION    = 97.2834
RA_OF_ASC_NODE = 296.2744
ARG_OF_PERICENTER = 85.5860
MEAN_ANOMALY   = 274.5704

EPHEMERIS_TYPE = 0
CLASSIFICATION_TYPE = U
NORAD_CAT_ID   = 67541
ELEMENT_SET_NO = 999
REV_AT_EPOCH   = 597
BSTAR          = .15958E-2
MEAN_MOTION_DOT = .244465E-2
MEAN_MOTION_DDOT = 0

CCSDS_OMM_VERS = 2.0
CREATION_DATE  = 
ORIGINATOR     = 

OBJECT_NAME    = STARLINK-35934
OBJECT_ID      = 2026-014L
CENTER_NAME    = EARTH
REF_FRAME      = TEME
TIME_SYSTEM    = UTC
MEAN_ELEMENT_THEORY = SGP/SGP4

EPOCH          = 2026-02-21T06:00:02.000160
MEAN_MOTION    = 15.75254525
ECCENTRICITY   = .00017463
INCLINATION    = 97.2850
RA_OF_ASC_NODE = 296.4183
ARG_OF_PERICENTER = 91.7824
MEAN_ANOMALY   = 82.5551

EPHEMERIS_TYPE = 0
CLASSIFICATION_TYPE = U
NORAD_CAT_ID   = 67542
ELEMENT_SET_NO = 999
REV_AT_EPOCH   = 603
BSTAR          = -.11777331E-2
MEAN_MOTION_DOT = -.172788E-2
MEAN_MOTION_DDOT = 0

CCSDS_OMM_VERS = 2.0
CREATION_DATE  = 
ORIGINATOR     = 

OBJECT_NAME    = STARLINK-36581
OBJECT_ID      = 2026-014M
CENTER_NAME    = EARTH
REF_FRAME      = TEME
TIME_SYSTEM    = UTC
MEAN_ELEMENT_THEORY = SGP/SGP4

EPOCH          = 2026-02-21T05:26:56.487552
MEAN_MOTION    = 15.75213139
ECCENTRICITY   = .00017509
INCLINATION    = 97.2838
RA_OF_ASC_NODE = 296.3748
ARG_OF_PERICENTER = 86.5703
MEAN_ANOMALY   = 273.5763

EPHEMERIS_TYPE = 0
CLASSIFICATION_TYPE = U
NORAD_CAT_ID   = 67543
ELEMENT_SET_NO = 999
REV_AT_EPOCH   = 598
BSTAR          = .21577835E-2
MEAN_MOTION_DOT = .335007E-2
MEAN_MOTION_DDOT = 0

