STARLINK-36587          
1 67532U 26014A   26052.21758701  .00391109  00000+0  19490-2 0  9999
2 67532  97.2839 296.3907 0001850 119.1210 241.0244 15.80854798  5982
STARLINK-36417          
1 67533U 26014B   26052.20939431  .00287582  00000+0  18642-2 0  9997
2 67533  97.2832 296.2465 0002436  74.6398 285.5136 15.75196562  5971
STARLINK-36576          
1 67534U 26014C   26052.23692254  .00311802  00000+0  20172-2 0  9994
2 67534  97.2835 296.3630 0001527  85.9605 274.1835 15.75174875  5980
STARLINK-36574          
1 67535U 26014D   26052.25002315 -.00153287  00000+0 -10423-2 0  9991
2 67535  97.2847 296.4046 0002944  88.8300  51.5132 15.75250738  6042
STARLINK-36572          
1 67536U 26014E   26052.19563576  .00378283  00000+0  23961-2 0  9990
2 67536  97.2813 296.2655 0001647  93.5977 266.5477 15.75480824  5974
STARLINK-36561          
1 67537U 26014F   26052.20163083  .00308820  00000+0  20002-2 0  9995
2 67537  97.2828 296.2570 0002560  88.9352 271.2207 15.75156005  5972
STARLINK-36397          
1 67538U 26014G   26052.20550351  .00264033  00000+0  17189-2 0  9993
2 67538  97.2844 296.2524 0002176 156.2557 203.8809 15.75162011  5972
STARLINK-36573          
1 67539U 26014H   26052.22915865  .00246317  00000+0  16043-2 0  9994
2 67539  97.2848 296.3715 0001538  49.9102 310.2298 15.75201887  5986
STARLINK-36585          
1 67540U 26014J   26052.19739766  .00255950  00000+0  16651-2 0  9994
2 67540  97.2821 296.2587 0002399  72.8460 287.3067 15.75201070  5974
STARLINK-36579          
1 67541U 26014K   26052.18963232  .00244465  00000+0  15958-2 0  9999
2 67541  97.2834 296.2744 0002610  85.5860 274.5704 15.75153855  5978
STARLINK-35934          
1 67542U 26014L   26052.25002315 -.00172788  00000+0 -11777-2 0  9999
2 67542  97.2850 296.4183 0001746  91.7824  82.5551 15.75254525  6035
STARLINK-36581          
1 67543U 26014M   26052.22704268  .00335007  00000+0  21578-2 0  9996
2 67543  97.2838 296.3748 0001750  86.5703 273.5763 15.75213139  5987
